{
    "links": {
        "self": "http://www.neowsapp.com/rest/v1/neo/3693197?api_key=iIulBulltgU6a56xZRHN4H3l9WmuAYTsLGpBGhQ2"
    },
    "id": "3693197",
    "neo_reference_id": "3693197",
    "name": "(2014 TM34)",
    "designation": "2014 TM34",
    "nasa_jpl_url": "http://ssd.jpl.nasa.gov/sbdb.cgi?sstr=3693197",
    "absolute_magnitude_h": 25.0,
    "estimated_diameter": {
        "kilometers": {
            "estimated_diameter_min": 0.02658,
            "estimated_diameter_max": 0.0594346868
        },
        "meters": {
            "estimated_diameter_min": 26.58,
            "estimated_diameter_max": 59.4346868419
        },
        "miles": {
            "estimated_diameter_min": 0.0165160412,
            "estimated_diameter_max": 0.0369309908
        },
        "feet": {
            "estimated_diameter_min": 87.2047272,
            "estimated_diameter_max": 194.9956979785
        }
    },
    "is_potentially_hazardous_asteroid": false,
    "close_approach_data": [
        {
            "close_approach_date": "2014-10-05",
            "close_approach_date_full": "2014-Oct-05 18:50",
            "epoch_date_close_approach": 1412535000000,
            "relative_velocity": {
                "kilometers_per_second": "6.9332280602",
                "kilometers_per_hour": "24959.6210165481",
                "miles_per_hour": "15508.9378477545"
            },
            "miss_distance": {
                "astronomical": "0.024667626",
                "lunar": "9.595706514",
                "kilometers": "3690224.30755662",
                "miles": "2292999.056936556"
            },
            "orbiting_body": "Earth"
        }
    ],
    "orbital_data": {
        "orbit_id": "12",
        "orbit_determination_date": "2017-04-06 08:38:11",
        "first_observation_date": "2014-10-12",
        "last_observation_date": "2014-10-30",
        "data_arc_in_days": 18,
        "observations_used": 51,
        "orbit_uncertainty": "8",
        "minimum_orbit_intersection": ".0161361",
        "jupiter_tisserand_invariant": "3.783",
        "epoch_osculation": "2456952.5",
        "eccentricity": ".4723166566411036",
        "semi_major_axis": "1.917888416248784",
        "inclination": "2.178802295447358",
        "ascending_node_longitude": "201.7157027664805",
        "orbital_period": "970.1378099179891",
        "perihelion_distance": "1.012037771675457",
        "perihelion_argument": "156.5499647155394",
        "aphelion_distance": "2.823739060822111",
        "perihelion_time": "2456924.859098941394",
        "mean_anomaly": "10.25702150701594",
        "mean_motion": ".3710813003262214",
        "equinox": "J2000",
        "orbit_class": {
            "orbit_class_type": "APO",
            "orbit_class_description": "Near-Earth asteroid orbits which cross the Earth’s orbit similar to that of 1862 Apollo",
            "orbit_class_range": "a (semi-major axis) > 1.0 AU; q (perihelion) < 1.017 AU"
        }
    },
    "is_sentry_object": false
}